STARLINK-37234          
1 68535U 26068AD  26101.83334491 -.00016259  00000+0 -78957-4 0  9998
2 68535  53.1600 342.9810 0000782  92.6872 246.4278 15.80883040  3140
STARLINK-37173          
1 68536U 26068AE  26101.83334491 -.00024080  00000+0 -11869-3 0  9998
2 68536  53.1594 342.9893 0001109  92.6525 242.1852 15.80892297  3148
SWC-1                   
1 68540U 26069C   26094.03836202 -.00012113  68892-4  00000+0 0  9996
2 68540  28.3174 359.0866 8436800  78.4879  25.8197  1.02608558    39
STARLINK-37326          
1 68542U 26070A   26101.83334491 -.01078494  36094-3 -27312-2 0  9992
2 68542  53.1580 218.5896 0000901  41.4207 232.9239 15.94843468  2718
STARLINK-36308          
1 68543U 26070B   26101.83334491 -.01077585  36074-3 -27147-2 0  9997
2 68543  53.1577 218.5841 0000903  41.5509 235.1969 15.94940138  2664
STARLINK-37263          
1 68544U 26070C   26101.83334491 -.01076422  36074-3 -26838-2 0  9993
2 68544  53.1576 218.5748 0000893  40.4357 241.0162 15.95132797  2719
STARLINK-37289          
1 68545U 26070D   26101.83334491 -.01073914  35885-3 -26921-2 0  9999
2 68545  53.1573 218.5806 0000901  41.4014 237.2401 15.95031624  2713
STARLINK-37290          
1 68546U 26070E   26101.83334491 -.01078203  36219-3 -26736-2 0  9992
2 68546  53.1579 218.5685 0000900  40.4475 243.8929 15.95234676  2714
STARLINK-37245          
1 68547U 26070F   26101.83334491 -.01079102  36348-3 -26471-2 0  9991
2 68547  53.1577 218.5574 0000922  41.0253 248.7390 15.95434692  2711
STARLINK-37145          
1 68548U 26070G   26101.83334491 -.01076568  36155-3 -26557-2 0  9996
2 68548  53.1576 218.5639 0000903  41.1430 245.5827 15.95330480  2710
STARLINK-36204          
1 68549U 26070H   26101.83334491 -.01081970  36561-3 -26395-2 0  9991
2 68549  53.1579 218.5516 0000880  42.5491 250.0184 15.95537092  2663
STARLINK-36304          
1 68550U 26070J   26101.83334491 -.01085374  36847-3 -26183-2 0  9997
2 68550  53.1577 218.5395 0000887  42.1009 256.2704 15.95744464  2665
STARLINK-37288          
1 68551U 26070K   26101.83334491 -.01084809  36850-3 -26030-2 0  9995
2 68551  53.1577 218.5343 0000884  42.0429 258.7925 15.95842775  2713
STARLINK-37295          
1 68552U 26070L   26101.83334491 -.01085050  36790-3 -26319-2 0  9998
2 68552  53.1575 218.5451 0000875  42.1841 253.5279 15.95643709  2712
STARLINK-37254          
1 68553U 26070M   26101.83334491 -.01090265  37269-3 -25853-2 0  9997
2 68553  53.1574 218.5208 0000942  45.5191 261.6933 15.96061293  2712
