[{"OBJECT_NAME":"STARLINK-37234","OBJECT_ID":"2026-068AD","EPOCH":"2026-04-11T20:00:01.000224","MEAN_MOTION":15.8088304,"ECCENTRICITY":7.82e-5,"INCLINATION":53.16,"RA_OF_ASC_NODE":342.981,"ARG_OF_PERICENTER":92.6872,"MEAN_ANOMALY":246.4278,"EPHEMERIS_TYPE":0,"CLASSIFICATION_TYPE":"U","NORAD_CAT_ID":68535,"ELEMENT_SET_NO":999,"REV_AT_EPOCH":314,"BSTAR":-7.8957e-5,"MEAN_MOTION_DOT":-0.00016259,"MEAN_MOTION_DDOT":0},{"OBJECT_NAME":"STARLINK-37173","OBJECT_ID":"2026-068AE","EPOCH":"2026-04-11T20:00:01.000224","MEAN_MOTION":15.80892297,"ECCENTRICITY":0.0001109,"INCLINATION":53.1594,"RA_OF_ASC_NODE":342.9893,"ARG_OF_PERICENTER":92.6525,"MEAN_ANOMALY":242.1852,"EPHEMERIS_TYPE":0,"CLASSIFICATION_TYPE":"U","NORAD_CAT_ID":68536,"ELEMENT_SET_NO":999,"REV_AT_EPOCH":314,"BSTAR":-0.00011869,"MEAN_MOTION_DOT":-0.0002408,"MEAN_MOTION_DDOT":0},{"OBJECT_NAME":"SWC-1","OBJECT_ID":"2026-069C","EPOCH":"2026-04-04T00:55:14.478528","MEAN_MOTION":1.02608558,"ECCENTRICITY":0.84368008,"INCLINATION":28.3174,"RA_OF_ASC_NODE":359.0866,"ARG_OF_PERICENTER":78.4879,"MEAN_ANOMALY":25.8197,"EPHEMERIS_TYPE":0,"CLASSIFICATION_TYPE":"U","NORAD_CAT_ID":68540,"ELEMENT_SET_NO":999,"REV_AT_EPOCH":3,"BSTAR":0,"MEAN_MOTION_DOT":-0.00012113,"MEAN_MOTION_DDOT":6.8891712e-5},{"OBJECT_NAME":"STARLINK-37326","OBJECT_ID":"2026-070A","EPOCH":"2026-04-11T20:00:01.000224","MEAN_MOTION":15.94843468,"ECCENTRICITY":9.01e-5,"INCLINATION":53.158,"RA_OF_ASC_NODE":218.5896,"ARG_OF_PERICENTER":41.4207,"MEAN_ANOMALY":232.9239,"EPHEMERIS_TYPE":0,"CLASSIFICATION_TYPE":"U","NORAD_CAT_ID":68542,"ELEMENT_SET_NO":999,"REV_AT_EPOCH":271,"BSTAR":-0.0027312,"MEAN_MOTION_DOT":-0.01078494,"MEAN_MOTION_DDOT":0.00036094},{"OBJECT_NAME":"STARLINK-36308","OBJECT_ID":"2026-070B","EPOCH":"2026-04-11T20:00:01.000224","MEAN_MOTION":15.94940138,"ECCENTRICITY":9.03e-5,"INCLINATION":53.1577,"RA_OF_ASC_NODE":218.5841,"ARG_OF_PERICENTER":41.5509,"MEAN_ANOMALY":235.1969,"EPHEMERIS_TYPE":0,"CLASSIFICATION_TYPE":"U","NORAD_CAT_ID":68543,"ELEMENT_SET_NO":999,"REV_AT_EPOCH":266,"BSTAR":-0.0027147,"MEAN_MOTION_DOT":-0.01077585,"MEAN_MOTION_DDOT":0.00036074},{"OBJECT_NAME":"STARLINK-37263","OBJECT_ID":"2026-070C","EPOCH":"2026-04-11T20:00:01.000224","MEAN_MOTION":15.95132797,"ECCENTRICITY":8.93e-5,"INCLINATION":53.1576,"RA_OF_ASC_NODE":218.5748,"ARG_OF_PERICENTER":40.4357,"MEAN_ANOMALY":241.0162,"EPHEMERIS_TYPE":0,"CLASSIFICATION_TYPE":"U","NORAD_CAT_ID":68544,"ELEMENT_SET_NO":999,"REV_AT_EPOCH":271,"BSTAR":-0.0026838,"MEAN_MOTION_DOT":-0.01076422,"MEAN_MOTION_DDOT":0.00036074},{"OBJECT_NAME":"STARLINK-37289","OBJECT_ID":"2026-070D","EPOCH":"2026-04-11T20:00:01.000224","MEAN_MOTION":15.95031624,"ECCENTRICITY":9.01e-5,"INCLINATION":53.1573,"RA_OF_ASC_NODE":218.5806,"ARG_OF_PERICENTER":41.4014,"MEAN_ANOMALY":237.2401,"EPHEMERIS_TYPE":0,"CLASSIFICATION_TYPE":"U","NORAD_CAT_ID":68545,"ELEMENT_SET_NO":999,"REV_AT_EPOCH":271,"BSTAR":-0.0026921,"MEAN_MOTION_DOT":-0.01073914,"MEAN_MOTION_DDOT":0.00035885},{"OBJECT_NAME":"STARLINK-37290","OBJECT_ID":"2026-070E","EPOCH":"2026-04-11T20:00:01.000224","MEAN_MOTION":15.95234676,"ECCENTRICITY":9.0e-5,"INCLINATION":53.1579,"RA_OF_ASC_NODE":218.5685,"ARG_OF_PERICENTER":40.4475,"MEAN_ANOMALY":243.8929,"EPHEMERIS_TYPE":0,"CLASSIFICATION_TYPE":"U","NORAD_CAT_ID":68546,"ELEMENT_SET_NO":999,"REV_AT_EPOCH":271,"BSTAR":-0.0026736,"MEAN_MOTION_DOT":-0.01078203,"MEAN_MOTION_DDOT":0.00036219},{"OBJECT_NAME":"STARLINK-37245","OBJECT_ID":"2026-070F","EPOCH":"2026-04-11T20:00:01.000224","MEAN_MOTION":15.95434692,"ECCENTRICITY":9.22e-5,"INCLINATION":53.1577,"RA_OF_ASC_NODE":218.5574,"ARG_OF_PERICENTER":41.0253,"MEAN_ANOMALY":248.739,"EPHEMERIS_TYPE":0,"CLASSIFICATION_TYPE":"U","NORAD_CAT_ID":68547,"ELEMENT_SET_NO":999,"REV_AT_EPOCH":271,"BSTAR":-0.0026471,"MEAN_MOTION_DOT":-0.01079102,"MEAN_MOTION_DDOT":0.00036348},{"OBJECT_NAME":"STARLINK-37145","OBJECT_ID":"2026-070G","EPOCH":"2026-04-11T20:00:01.000224","MEAN_MOTION":15.9533048,"ECCENTRICITY":9.03e-5,"INCLINATION":53.1576,"RA_OF_ASC_NODE":218.5639,"ARG_OF_PERICENTER":41.143,"MEAN_ANOMALY":245.5827,"EPHEMERIS_TYPE":0,"CLASSIFICATION_TYPE":"U","NORAD_CAT_ID":68548,"ELEMENT_SET_NO":999,"REV_AT_EPOCH":271,"BSTAR":-0.0026557,"MEAN_MOTION_DOT":-0.01076568,"MEAN_MOTION_DDOT":0.00036155},{"OBJECT_NAME":"STARLINK-36204","OBJECT_ID":"2026-070H","EPOCH":"2026-04-11T20:00:01.000224","MEAN_MOTION":15.95537092,"ECCENTRICITY":8.8e-5,"INCLINATION":53.1579,"RA_OF_ASC_NODE":218.5516,"ARG_OF_PERICENTER":42.5491,"MEAN_ANOMALY":250.0184,"EPHEMERIS_TYPE":0,"CLASSIFICATION_TYPE":"U","NORAD_CAT_ID":68549,"ELEMENT_SET_NO":999,"REV_AT_EPOCH":266,"BSTAR":-0.0026395,"MEAN_MOTION_DOT":-0.0108197,"MEAN_MOTION_DDOT":0.00036561},{"OBJECT_NAME":"STARLINK-36304","OBJECT_ID":"2026-070J","EPOCH":"2026-04-11T20:00:01.000224","MEAN_MOTION":15.95744464,"ECCENTRICITY":8.87e-5,"INCLINATION":53.1577,"RA_OF_ASC_NODE":218.5395,"ARG_OF_PERICENTER":42.1009,"MEAN_ANOMALY":256.2704,"EPHEMERIS_TYPE":0,"CLASSIFICATION_TYPE":"U","NORAD_CAT_ID":68550,"ELEMENT_SET_NO":999,"REV_AT_EPOCH":266,"BSTAR":-0.0026183,"MEAN_MOTION_DOT":-0.01085374,"MEAN_MOTION_DDOT":0.00036847},{"OBJECT_NAME":"STARLINK-37288","OBJECT_ID":"2026-070K","EPOCH":"2026-04-11T20:00:01.000224","MEAN_MOTION":15.95842775,"ECCENTRICITY":8.84e-5,"INCLINATION":53.1577,"RA_OF_ASC_NODE":218.5343,"ARG_OF_PERICENTER":42.0429,"MEAN_ANOMALY":258.7925,"EPHEMERIS_TYPE":0,"CLASSIFICATION_TYPE":"U","NORAD_CAT_ID":68551,"ELEMENT_SET_NO":999,"REV_AT_EPOCH":271,"BSTAR":-0.002603,"MEAN_MOTION_DOT":-0.01084809,"MEAN_MOTION_DDOT":0.0003685},{"OBJECT_NAME":"STARLINK-37295","OBJECT_ID":"2026-070L","EPOCH":"2026-04-11T20:00:01.000224","MEAN_MOTION":15.95643709,"ECCENTRICITY":8.75e-5,"INCLINATION":53.1575,"RA_OF_ASC_NODE":218.5451,"ARG_OF_PERICENTER":42.1841,"MEAN_ANOMALY":253.5279,"EPHEMERIS_TYPE":0,"CLASSIFICATION_TYPE":"U","NORAD_CAT_ID":68552,"ELEMENT_SET_NO":999,"REV_AT_EPOCH":271,"BSTAR":-0.0026319,"MEAN_MOTION_DOT":-0.0108505,"MEAN_MOTION_DDOT":0.0003679},{"OBJECT_NAME":"STARLINK-37254","OBJECT_ID":"2026-070M","EPOCH":"2026-04-11T20:00:01.000224","MEAN_MOTION":15.96061293,"ECCENTRICITY":9.42e-5,"INCLINATION":53.1574,"RA_OF_ASC_NODE":218.5208,"ARG_OF_PERICENTER":45.5191,"MEAN_ANOMALY":261.6933,"EPHEMERIS_TYPE":0,"CLASSIFICATION_TYPE":"U","NORAD_CAT_ID":68553,"ELEMENT_SET_NO":999,"REV_AT_EPOCH":271,"BSTAR":-0.0025853,"MEAN_MOTION_DOT":-0.01090265,"MEAN_MOTION_DDOT":0.00037269}]
